IRNSS-1A----------------
1 39199U 13034A   21284.05735530  .00000094  00000-0  00000-0 0  9990
2 39199  31.8764  89.2098 0020755 178.4106 187.9071  1.00271566 30222
IRNSS-1B----------------
1 39635U 14017A   21284.05735530  .00000091  00000-0  00000-0 0  9994
2 39635  29.2548 269.2558 0019934 189.7338 356.4919  1.00268854 27640
IRNSS-1C----------------
1 40269U 14061A   21284.56557546 -.00000170  00000-0  00000-0 0  9992
2 40269   2.4727 141.4053 0020174   7.7742 157.8898  1.00272469 25547
IRNSS-1D----------------
1 40547U 15018A   21283.98156227 -.00000292  00000-0  00000-0 0  9995
2 40547  29.0900 269.3155 0018617 186.9202  28.6362  1.00279429 23842
IRNSS-1E----------------
1 41241U 16003A   21280.94193031 -.00000275  00000-0  00000+0 0  9999
2 41241  29.4175  88.5705 0021865 175.8604 203.2444  1.00268849 21020
IRNSS-1F----------------
1 41384U 16015A   21284.55545816  .00000151  00000-0  00000-0 0  9996
2 41384   1.9704 177.5047 0017748 183.8381 251.4668  1.00270668 20524
IRNSS-1G----------------
1 41469U 16027A   21284.60895380 -.00000344  00000-0  00000-0 0  9998
2 41469   1.9330 180.9913 0003112 319.4400 228.7148  1.00269480 20038
IRNSS-1I----------------
1 43286U 18035A   21284.56008073  .00000101  00000-0  00000-0 0  9998
2 43286  29.3290 101.4230 0020758 177.6183 358.0800  1.00268750 12934
